[{"OBJECT_NAME":"SEAHAWK-1","OBJECT_ID":"2018-099BQ","EPOCH":"2026-03-09T17:26:19.455648","MEAN_MOTION":15.21024633,"ECCENTRICITY":0.00069788,"INCLINATION":97.4094,"RA_OF_ASC_NODE":122.7887,"ARG_OF_PERICENTER":302.9769,"MEAN_ANOMALY":57.0796,"EPHEMERIS_TYPE":0,"CLASSIFICATION_TYPE":"U","NORAD_CAT_ID":43820,"ELEMENT_SET_NO":999,"REV_AT_EPOCH":39740,"BSTAR":0.00046242233,"MEAN_MOTION_DOT":0.00010205,"MEAN_MOTION_DDOT":0},{"OBJECT_NAME":"UNKNOWN","OBJECT_ID":"","EPOCH":"2026-03-05T07:23:30.759360","MEAN_MOTION":15.16846688,"ECCENTRICITY":0.00030538,"INCLINATION":98.6694,"RA_OF_ASC_NODE":94.3286,"ARG_OF_PERICENTER":181.4323,"MEAN_ANOMALY":178.6899,"EPHEMERIS_TYPE":0,"CLASSIFICATION_TYPE":"U","NORAD_CAT_ID":270304,"ELEMENT_SET_NO":999,"REV_AT_EPOCH":26068,"BSTAR":0.007049134,"MEAN_MOTION_DOT":0.00141256,"MEAN_MOTION_DDOT":0}]
